*******************************************************************************
 Revised: Sep 10, 2019             Cordelia / (Uranus)                      706

 SATELLITE PHYSICAL PROPERTIES:
  Radius (km)           = 13 +- 2           Density (g cm^-3)   =
  Mass (10^20 kg )      =                   Geometric Albedo    =   0.07 
                                            V(1,0)              = +11.4

 SATELLITE ORBITAL DATA:
  Semi-major axis, a (km) =  49.752 (10^3)  Orbital period      =  0.335033 d
  Eccentricity, e         =   0.0           Rotational period   = 
  Inclination, i  (deg)   =   0.1 
*******************************************************************************
 
 
*******************************************************************************
Ephemeris / WWW_USER Thu Jun 18 11:34:16 2020 Pasadena, USA      / Horizons
*******************************************************************************
Target body name: Cordelia (706)                  {source: ura115}
Center body name: Solar System Barycenter (0)     {source: DE431mx}
Center-site name: BODY CENTER
*******************************************************************************
Start time      : A.D. 2000-Jun-05 00:00:00.0000 TDB
Stop  time      : A.D. 2040-May-26 00:00:00.0000 TDB
Step-size       : 14400 minutes
*******************************************************************************
Center geodetic : 0.00000000,0.00000000,0.0000000 {E-lon(deg),Lat(deg),Alt(km)}
Center cylindric: 0.00000000,0.00000000,0.0000000 {E-lon(deg),Dxy(km),Dz(km)}
Center radii    : (undefined)                                                  
Output units    : AU-D
Output type     : GEOMETRIC cartesian states
Output format   : 3 (position, velocity, LT, range, range-rate)
Reference frame : Ecliptic of J2000.0
*******************************************************************************
JDTDB
   X     Y     Z
   VX    VY    VZ
   LT    RG    RR
*******************************************************************************
$$SOE
2460020.500000000 = A.D. 2023-Mar-17 00:00:00.0000 TDB 
 X = 1.314059020781214E+01 Y = 1.461222556772137E+01 Z =-1.162965335786612E-01
 VX=-8.992232154997495E-03 VY= 3.857418096606501E-03 VZ= 7.653726946919296E-04
 LT= 1.135011721761418E-01 RG= 1.965211876453378E+01 RR=-3.149115136057724E-03
2460030.500000000 = A.D. 2023-Mar-27 00:00:00.0000 TDB 
 X = 1.311131445055452E+01 Y = 1.463661740270565E+01 Z =-1.157151271978624E-01
 VX=-7.154132699121277E-03 VY= 2.720749462066232E-03 VZ=-4.564068425816925E-03
 LT= 1.134930537740454E-01 RG= 1.965071310678491E+01 RR=-2.719971660336584E-03
2460040.500000000 = A.D. 2023-Apr-06 00:00:00.0000 TDB 
 X = 1.308178699615345E+01 Y = 1.466102149853614E+01 Z =-1.149461780100700E-01
 VX=-1.755394925218780E-03 VY= 1.347235029988894E-03 VZ=-5.979264451108954E-03
 LT= 1.134844403621639E-01 RG= 1.964922174074861E+01 RR=-1.284817895047074E-04
2460050.500000000 = A.D. 2023-Apr-16 00:00:00.0000 TDB 
 X = 1.305193729868534E+01 Y = 1.468541856144229E+01 Z =-1.142402356859632E-01
 VX= 2.623472474790512E-03 VY= 9.015295855815010E-04 VZ=-2.275674874351621E-03
 LT= 1.134749932257779E-01 RG= 1.964758601978922E+01 RR= 2.429851236761924E-03
2460060.500000000 = A.D. 2023-Apr-26 00:00:00.0000 TDB 
 X = 1.302192527494339E+01 Y = 1.470974645382472E+01 Z =-1.137941230082480E-01
 VX= 2.250113528896791E-03 VY= 1.762261420450302E-03 VZ= 3.406776166164359E-03
 LT= 1.134650705109687E-01 RG= 1.964586795497846E+01 RR= 2.791200568647016E-03
2460070.500000000 = A.D. 2023-May-06 00:00:00.0000 TDB 
 X = 1.299200611093822E+01 Y = 1.473395296456490E+01 Z =-1.135830950759750E-01
 VX=-2.564303153327804E-03 VY= 3.190901717403817E-03 VZ= 6.228797412264741E-03
 LT= 1.134554225396386E-01 RG= 1.964419746052645E+01 RR= 6.613488546866717E-04
2460080.500000000 = A.D. 2023-May-16 00:00:00.0000 TDB 
 X = 1.296231185258441E+01 Y = 1.475804053247443E+01 Z =-1.133820772017565E-01
 VX=-7.724489967528615E-03 VY= 3.963570706029379E-03 VZ= 3.798529410923371E-03
 LT= 1.134465506325756E-01 RG= 1.964266133743691E+01 RR=-2.141430591337923E-03
2460090.500000000 = A.D. 2023-May-26 00:00:00.0000 TDB 
 X = 1.293274064134763E+01 Y = 1.478206373454757E+01 Z =-1.129578291839021E-01
 VX=-8.860531285656894E-03 VY= 3.416861767944059E-03 VZ=-1.813496282321552E-03
 LT= 1.134382886668990E-01 RG= 1.964123082242467E+01 RR=-3.252231828559578E-03
2460100.500000000 = A.D. 2023-Jun-05 00:00:00.0000 TDB 
 X = 1.290304368952799E+01 Y = 1.480608286267261E+01 Z =-1.122662629817184E-01
 VX=-5.011294740262257E-03 VY= 2.005263478768048E-03 VZ=-5.849077349269364E-03
 LT= 1.134299493291900E-01 RG= 1.963978691086029E+01 RR=-1.747178003836005E-03
2460110.500000000 = A.D. 2023-Jun-15 00:00:00.0000 TDB 
 X = 1.287303551302549E+01 Y = 1.483011287748148E+01 Z =-1.114892734051405E-01
 VX= 5.565447672883212E-04 VY= 9.219126966323325E-04 VZ=-4.871672397629153E-03
 LT= 1.134209049546517E-01 RG= 1.963822092595309E+01 RR= 1.088674437701074E-03
2460120.500000000 = A.D. 2023-Jun-25 00:00:00.0000 TDB 
 X = 1.284275215347077E+01 Y = 1.485411013840734E+01 Z =-1.108818096001398E-01
 VX= 3.097775235689903E-03 VY= 1.087553485128220E-03 VZ= 2.902077106051626E-04
 LT= 1.134111176885312E-01 RG= 1.963652631335578E+01 RR= 2.847062620973431E-03
2460130.500000000 = A.D. 2023-Jul-05 00:00:00.0000 TDB 
 X = 1.281242090653701E+01 Y = 1.487800937670318E+01 Z =-1.105542075171050E-01
 VX= 4.535212237748739E-04 VY= 2.358780788674876E-03 VZ= 5.240095193348372E-03
 LT= 1.134011684674346E-01 RG= 1.963480365912361E+01 RR= 2.053769094369882E-03
2460140.500000000 = A.D. 2023-Jul-15 00:00:00.0000 TDB 
 X = 1.278226711445029E+01 Y = 1.490177907478565E+01 Z =-1.103783532551055E-01
 VX=-5.126553836853067E-03 VY= 3.654713786484908E-03 VZ= 5.780330554340242E-03
 LT= 1.133917613783107E-01 RG= 1.963317487213272E+01 RR=-5.961983497619199E-04
2460150.500000000 = A.D. 2023-Jul-25 00:00:00.0000 TDB 
 X = 1.275232256977494E+01 Y = 1.492544816597363E+01 Z =-1.100971306214186E-01
 VX=-8.915634088939119E-03 VY= 3.873753963895452E-03 VZ= 1.451354120330947E-03
 LT= 1.133831270747577E-01 RG= 1.963167988881563E+01 RR=-2.854433143873017E-03
2460160.500000000 = A.D. 2023-Aug-04 00:00:00.0000 TDB 
 X = 1.272239877873480E+01 Y = 1.494908154298017E+01 Z =-1.095420596839555E-01
 VX=-7.692229025870715E-03 VY= 2.821207527177712E-03 VZ=-4.076958778553201E-03
 LT= 1.133748325466520E-01 RG= 1.963024373579357E+01 RR=-2.814154835401198E-03
2460170.500000000 = A.D. 2023-Aug-14 00:00:00.0000 TDB 
 X = 1.269224696693354E+01 Y = 1.497272483965424E+01 Z =-1.087776329304624E-01
 VX=-2.497484437810582E-03 VY= 1.383430584110167E-03 VZ=-6.096411215677348E-03
 LT= 1.133661507500622E-01 RG= 1.962874052931208E+01 RR=-5.258519064580574E-04
2460180.500000000 = A.D. 2023-Aug-24 00:00:00.0000 TDB 
 X = 1.266177025451931E+01 Y = 1.499636557883008E+01 Z =-1.080458566777912E-01
 VX= 2.239078892285170E-03 VY= 7.742996223153626E-04 VZ=-2.893361036172912E-03
 LT= 1.133566796756115E-01 RG= 1.962710066360528E+01 RR= 2.052009569918974E-03
2460190.500000000 = A.D. 2023-Sep-03 00:00:00.0000 TDB 
 X = 1.263110578030995E+01 Y = 1.501994383453901E+01 Z =-1.075599566279329E-01
 VX= 2.496087474399930E-03 VY= 1.500109048929816E-03 VZ= 2.804031206389907E-03
 LT= 1.133466794189702E-01 RG= 1.962536917284247E+01 RR= 2.739224757418051E-03
2460200.500000000 = A.D. 2023-Sep-13 00:00:00.0000 TDB 
 X = 1.260050709684884E+01 Y = 1.504340306050270E+01 Z =-1.073244379597838E-01
 VX=-1.948211616467345E-03 VY= 2.939803287563297E-03 VZ= 6.165978637809168E-03
 LT= 1.133368435950421E-01 RG= 1.962366615272139E+01 RR= 9.689540748497527E-04
2460210.500000000 = A.D. 2023-Sep-23 00:00:00.0000 TDB 
 X = 1.257013063388080E+01 Y = 1.506673755945175E+01 Z =-1.071310164892603E-01
 VX=-7.330476346848423E-03 VY= 3.868812593202927E-03 VZ= 4.329895089547007E-03
 LT= 1.133277148776702E-01 RG= 1.962208556430526E+01 RR=-1.748974502722165E-03
2460220.500000000 = A.D. 2023-Oct-03 00:00:00.0000 TDB 
 X = 1.253990216281222E+01 Y = 1.508999740122706E+01 Z =-1.067347636920636E-01
 VX=-9.071192606993562E-03 VY= 3.494465926317685E-03 VZ=-1.149337289245034E-03
 LT= 1.133192256030153E-01 RG= 1.962061569196345E+01 RR=-3.103761510699582E-03
2460230.500000000 = A.D. 2023-Oct-13 00:00:00.0000 TDB 
 X = 1.250957900769761E+01 Y = 1.511324591101730E+01 Z =-1.060625636765491E-01
 VX=-5.695824183550907E-03 VY= 2.135964009267748E-03 VZ=-5.605706272175914E-03
 LT= 1.133107562716244E-01 RG= 1.961914927269079E+01 RR=-1.956071448210702E-03
2460240.500000000 = A.D. 2023-Oct-23 00:00:00.0000 TDB 
 X = 1.247895759681327E+01 Y = 1.513650543209383E+01 Z =-1.052760118993553E-01
 VX=-8.399663535942169E-05 VY= 9.455057065568517E-04 VZ=-5.260709240162338E-03
 LT= 1.133016660264557E-01 RG= 1.961757534553012E+01 RR= 7.043321133038468E-04
2460250.500000000 = A.D. 2023-Nov-02 00:00:00.0000 TDB 
 X = 1.244804595386534E+01 Y = 1.515973861248390E+01 Z =-1.046331921442226E-01
 VX= 3.001920230405119E-03 VY= 9.261572071772674E-04 VZ=-4.090514018107073E-04
 LT= 1.132918337189932E-01 RG= 1.961587293426619E+01 RR= 2.622934124784270E-03
2460260.500000000 = A.D. 2023-Nov-12 00:00:00.0000 TDB 
 X = 1.241705723013253E+01 Y = 1.518288007698525E+01 Z =-1.042697075572434E-01
 VX= 9.308402916423829E-04 VY= 2.087852228526972E-03 VZ= 4.836980376242086E-03
 LT= 1.132817576830695E-01 RG= 1.961412832272737E+01 RR= 2.179732687829805E-03
2460270.500000000 = A.D. 2023-Nov-22 00:00:00.0000 TDB 
 X = 1.238622862702355E+01 Y = 1.520589195879345E+01 Z =-1.040835743050304E-01
 VX=-4.548443985343528E-03 VY= 3.433756361319402E-03 VZ= 6.011238273029187E-03
 LT= 1.132721305004026E-01 RG= 1.961246142772083E+01 RR=-2.422138618141144E-04
